[{"OBJECT_NAME":"GCOM-C (SHIKISAI)","OBJECT_ID":"2017-082A","EPOCH":"2026-03-09T22:50:15.762048","MEAN_MOTION":14.27292109,"ECCENTRICITY":0.00011018,"INCLINATION":98.6348,"RA_OF_ASC_NODE":143.8758,"ARG_OF_PERICENTER":107.3468,"MEAN_ANOMALY":252.7834,"EPHEMERIS_TYPE":0,"CLASSIFICATION_TYPE":"U","NORAD_CAT_ID":43065,"ELEMENT_SET_NO":999,"REV_AT_EPOCH":42778,"BSTAR":9.0011429e-5,"MEAN_MOTION_DOT":1.76e-6,"MEAN_MOTION_DDOT":0},{"OBJECT_NAME":"SL-8 R\/B","OBJECT_ID":"1992-053B","EPOCH":"2026-03-09T23:29:09.087360","MEAN_MOTION":14.34825191,"ECCENTRICITY":0.00366138,"INCLINATION":74.0459,"RA_OF_ASC_NODE":9.2729,"ARG_OF_PERICENTER":276.726,"MEAN_ANOMALY":82.9726,"EPHEMERIS_TYPE":0,"CLASSIFICATION_TYPE":"U","NORAD_CAT_ID":22081,"ELEMENT_SET_NO":999,"REV_AT_EPOCH":75523,"BSTAR":0.00012520677,"MEAN_MOTION_DOT":3.32e-6,"MEAN_MOTION_DDOT":0}]
